GLOBALSTAR M001         
1 25162U 98008A   25280.02083365 -.00000032  00000+0  49501-3 0  9992
2 25162  52.0062   7.7203 0002012 126.3076  45.0473 12.38219501257562
GLOBALSTAR M004         
1 25163U 98008B   25279.88161051 -.00000104  00000+0  22055-5 0  9991
2 25163  51.9996  73.3944 0003414 164.4454 351.4349 12.63404813275801
GLOBALSTAR M002         
1 25164U 98008C   25279.78158453 -.00000089  00000+0 -23848-3 0  9995
2 25164  52.0033 320.4020 0001292 357.9780   2.1035 11.61511870197039
GLOBALSTAR M003         
1 25165U 98008D   25280.03030712 -.00000204  00000+0 -12205-2 0  9996
2 25165  51.9935 218.7584 0007929 152.8691 289.2648 12.12056979246785
GLOBALSTAR M014         
1 25306U 98023A   25279.95469977 -.00000079  00000+0 -32527-4 0  9999
2 25306  51.9823 240.8392 0000491 188.7438 211.0776 11.65482356204200
GLOBALSTAR M006         
1 25307U 98023B   25279.83449507 -.00000056  00000+0  40639-3 0  9990
2 25307  51.9942 297.7917 0003002 310.1727 221.5251 11.58176544229763
GLOBALSTAR M015         
1 25308U 98023C   25279.78738251 -.00000086  00000+0 -29447-3 0  9990
2 25308  51.9844  41.4889 0011768 273.4000 241.8283 11.48858812206905
GLOBALSTAR M008         
1 25309U 98023D   25279.89997065 -.00000086  00000+0  76751-4 0  9993
2 25309  51.9958 234.1688 0003155  51.4261 342.8301 12.36073507251668
